CCSDS_OMM_VERS = 2.0
CREATION_DATE  = 
ORIGINATOR     = 

OBJECT_NAME    = 2025-292J
OBJECT_ID      = 2025-292J
CENTER_NAME    = EARTH
REF_FRAME      = TEME
TIME_SYSTEM    = UTC
MEAN_ELEMENT_THEORY = SGP/SGP4

EPOCH          = 2026-01-08T03:29:17.008800
MEAN_MOTION    = 15.04688112
ECCENTRICITY   = .0015887
INCLINATION    = 97.6528
RA_OF_ASC_NODE = 85.4431
ARG_OF_PERICENTER = 175.0651
MEAN_ANOMALY   = 185.0734

EPHEMERIS_TYPE = 0
CLASSIFICATION_TYPE = U
NORAD_CAT_ID   = 67001
ELEMENT_SET_NO = 999
REV_AT_EPOCH   = 436
BSTAR          = .40135E-3
MEAN_MOTION_DOT = .5602E-4
MEAN_MOTION_DDOT = 0

CCSDS_OMM_VERS = 2.0
CREATION_DATE  = 
ORIGINATOR     = 

OBJECT_NAME    = ZK-1A R/B
OBJECT_ID      = 2025-292K
CENTER_NAME    = EARTH
REF_FRAME      = TEME
TIME_SYSTEM    = UTC
MEAN_ELEMENT_THEORY = SGP/SGP4

EPOCH          = 2026-01-08T04:01:18.249312
MEAN_MOTION    = 15.63879723
ECCENTRICITY   = .0189284
INCLINATION    = 97.7162
RA_OF_ASC_NODE = 88.2285
ARG_OF_PERICENTER = 268.0471
MEAN_ANOMALY   = 89.9101

EPHEMERIS_TYPE = 0
CLASSIFICATION_TYPE = U
NORAD_CAT_ID   = 67002
ELEMENT_SET_NO = 999
REV_AT_EPOCH   = 451
BSTAR          = .6906E-3
MEAN_MOTION_DOT = .169343E-2
MEAN_MOTION_DDOT = .10283E-4

CCSDS_OMM_VERS = 2.0
CREATION_DATE  = 
ORIGINATOR     = 

OBJECT_NAME    = STARLINK-35660
OBJECT_ID      = 2025-293A
CENTER_NAME    = EARTH
REF_FRAME      = TEME
TIME_SYSTEM    = UTC
MEAN_ELEMENT_THEORY = SGP/SGP4

EPOCH          = 2026-01-08T01:21:12.176352
MEAN_MOTION    = 15.52559889
ECCENTRICITY   = .0003533
INCLINATION    = 69.9994
RA_OF_ASC_NODE = 249.4115
ARG_OF_PERICENTER = 269.2756
MEAN_ANOMALY   = 90.8026

EPHEMERIS_TYPE = 0
CLASSIFICATION_TYPE = U
NORAD_CAT_ID   = 67003
ELEMENT_SET_NO = 999
REV_AT_EPOCH   = 575
BSTAR          = .13509E-2
MEAN_MOTION_DOT = .83946E-3
MEAN_MOTION_DDOT = 0

CCSDS_OMM_VERS = 2.0
CREATION_DATE  = 
ORIGINATOR     = 

OBJECT_NAME    = STARLINK-35913
OBJECT_ID      = 2025-293B
CENTER_NAME    = EARTH
REF_FRAME      = TEME
TIME_SYSTEM    = UTC
MEAN_ELEMENT_THEORY = SGP/SGP4

EPOCH          = 2026-01-08T01:20:42.554976
MEAN_MOTION    = 15.52551959
ECCENTRICITY   = .000342
INCLINATION    = 69.9999
RA_OF_ASC_NODE = 249.4109
ARG_OF_PERICENTER = 267.7452
MEAN_ANOMALY   = 92.3344

EPHEMERIS_TYPE = 0
CLASSIFICATION_TYPE = U
NORAD_CAT_ID   = 67004
ELEMENT_SET_NO = 999
REV_AT_EPOCH   = 575
BSTAR          = .10463E-2
MEAN_MOTION_DOT = .64809E-3
MEAN_MOTION_DDOT = 0

CCSDS_OMM_VERS = 2.0
CREATION_DATE  = 
ORIGINATOR     = 

OBJECT_NAME    = STARLINK-36148
OBJECT_ID      = 2025-293C
CENTER_NAME    = EARTH
REF_FRAME      = TEME
TIME_SYSTEM    = UTC
MEAN_ELEMENT_THEORY = SGP/SGP4

EPOCH          = 2026-01-08T04:00:01.998720
MEAN_MOTION    = 15.52472781
ECCENTRICITY   = .0003469
INCLINATION    = 69.9996
RA_OF_ASC_NODE = 249.1045
ARG_OF_PERICENTER = 274.0880
MEAN_ANOMALY   = 346.1464

EPHEMERIS_TYPE = 0
CLASSIFICATION_TYPE = U
NORAD_CAT_ID   = 67005
ELEMENT_SET_NO = 999
REV_AT_EPOCH   = 439
BSTAR          = .10449E-2
MEAN_MOTION_DOT = .64534E-3
MEAN_MOTION_DDOT = 0

CCSDS_OMM_VERS = 2.0
CREATION_DATE  = 
ORIGINATOR     = 

OBJECT_NAME    = STARLINK-36156
OBJECT_ID      = 2025-293D
CENTER_NAME    = EARTH
REF_FRAME      = TEME
TIME_SYSTEM    = UTC
MEAN_ELEMENT_THEORY = SGP/SGP4

EPOCH          = 2026-01-07T22:13:40.081440
MEAN_MOTION    = 15.52552293
ECCENTRICITY   = .0003357
INCLINATION    = 69.9986
RA_OF_ASC_NODE = 249.7588
ARG_OF_PERICENTER = 268.1884
MEAN_ANOMALY   = 91.8919

EPHEMERIS_TYPE = 0
CLASSIFICATION_TYPE = U
NORAD_CAT_ID   = 67006
ELEMENT_SET_NO = 999
REV_AT_EPOCH   = 573
BSTAR          = .95411E-3
MEAN_MOTION_DOT = .59039E-3
MEAN_MOTION_DDOT = 0

CCSDS_OMM_VERS = 2.0
CREATION_DATE  = 
ORIGINATOR     = 

OBJECT_NAME    = STARLINK-36123
OBJECT_ID      = 2025-293E
CENTER_NAME    = EARTH
REF_FRAME      = TEME
TIME_SYSTEM    = UTC
MEAN_ELEMENT_THEORY = SGP/SGP4

EPOCH          = 2026-01-08T01:18:53.284896
MEAN_MOTION    = 15.57262966
ECCENTRICITY   = .001773
INCLINATION    = 70.0014
RA_OF_ASC_NODE = 249.4059
ARG_OF_PERICENTER = 286.5684
MEAN_ANOMALY   = 73.3558

EPHEMERIS_TYPE = 0
CLASSIFICATION_TYPE = U
NORAD_CAT_ID   = 67007
ELEMENT_SET_NO = 999
REV_AT_EPOCH   = 575
BSTAR          = .63881E-1
MEAN_MOTION_DOT = .549372E-1
MEAN_MOTION_DDOT = 0

CCSDS_OMM_VERS = 2.0
CREATION_DATE  = 
ORIGINATOR     = 

OBJECT_NAME    = STARLINK-36163
OBJECT_ID      = 2025-293F
CENTER_NAME    = EARTH
REF_FRAME      = TEME
TIME_SYSTEM    = UTC
MEAN_ELEMENT_THEORY = SGP/SGP4

EPOCH          = 2026-01-08T04:00:01.998720
MEAN_MOTION    = 15.52472988
ECCENTRICITY   = .0003364
INCLINATION    = 69.9997
RA_OF_ASC_NODE = 249.0980
ARG_OF_PERICENTER = 274.6330
MEAN_ANOMALY   = 351.3537

EPHEMERIS_TYPE = 0
CLASSIFICATION_TYPE = U
NORAD_CAT_ID   = 67008
ELEMENT_SET_NO = 999
REV_AT_EPOCH   = 439
BSTAR          = .96408E-3
MEAN_MOTION_DOT = .59491E-3
MEAN_MOTION_DDOT = 0

CCSDS_OMM_VERS = 2.0
CREATION_DATE  = 
ORIGINATOR     = 

OBJECT_NAME    = STARLINK-36118
OBJECT_ID      = 2025-293G
CENTER_NAME    = EARTH
REF_FRAME      = TEME
TIME_SYSTEM    = UTC
MEAN_ELEMENT_THEORY = SGP/SGP4

EPOCH          = 2026-01-08T04:00:01.998720
MEAN_MOTION    = 15.52471242
ECCENTRICITY   = .0003411
INCLINATION    = 69.9997
RA_OF_ASC_NODE = 249.0955
ARG_OF_PERICENTER = 276.2148
MEAN_ANOMALY   = 351.6915

EPHEMERIS_TYPE = 0
CLASSIFICATION_TYPE = U
NORAD_CAT_ID   = 67009
ELEMENT_SET_NO = 999
REV_AT_EPOCH   = 433
BSTAR          = .99339E-3
MEAN_MOTION_DOT = .61315E-3
MEAN_MOTION_DDOT = 0

CCSDS_OMM_VERS = 2.0
CREATION_DATE  = 
ORIGINATOR     = 

OBJECT_NAME    = STARLINK-36189
OBJECT_ID      = 2025-293H
CENTER_NAME    = EARTH
REF_FRAME      = TEME
TIME_SYSTEM    = UTC
MEAN_ELEMENT_THEORY = SGP/SGP4

EPOCH          = 2026-01-08T04:00:01.998720
MEAN_MOTION    = 15.52469361
ECCENTRICITY   = .0003422
INCLINATION    = 69.9996
RA_OF_ASC_NODE = 249.0907
ARG_OF_PERICENTER = 277.2139
MEAN_ANOMALY   = 354.5257

EPHEMERIS_TYPE = 0
CLASSIFICATION_TYPE = U
NORAD_CAT_ID   = 67010
ELEMENT_SET_NO = 999
REV_AT_EPOCH   = 440
BSTAR          = .10432E-2
MEAN_MOTION_DOT = .64418E-3
MEAN_MOTION_DDOT = 0

CCSDS_OMM_VERS = 2.0
CREATION_DATE  = 
ORIGINATOR     = 

OBJECT_NAME    = STARLINK-36167
OBJECT_ID      = 2025-293J
CENTER_NAME    = EARTH
REF_FRAME      = TEME
TIME_SYSTEM    = UTC
MEAN_ELEMENT_THEORY = SGP/SGP4

EPOCH          = 2026-01-08T04:00:01.998720
MEAN_MOTION    = 15.52467840
ECCENTRICITY   = .000337
INCLINATION    = 69.9995
RA_OF_ASC_NODE = 249.0928
ARG_OF_PERICENTER = 274.4418
MEAN_ANOMALY   = 355.3839

EPHEMERIS_TYPE = 0
CLASSIFICATION_TYPE = U
NORAD_CAT_ID   = 67011
ELEMENT_SET_NO = 999
REV_AT_EPOCH   = 433
BSTAR          = .10514E-2
MEAN_MOTION_DOT = .64927E-3
MEAN_MOTION_DDOT = 0

CCSDS_OMM_VERS = 2.0
CREATION_DATE  = 
ORIGINATOR     = 

OBJECT_NAME    = STARLINK-36175
OBJECT_ID      = 2025-293K
CENTER_NAME    = EARTH
REF_FRAME      = TEME
TIME_SYSTEM    = UTC
MEAN_ELEMENT_THEORY = SGP/SGP4

EPOCH          = 2026-01-08T04:00:01.998720
MEAN_MOTION    = 15.52472299
ECCENTRICITY   = .0003347
INCLINATION    = 69.9997
RA_OF_ASC_NODE = 249.0886
ARG_OF_PERICENTER = 275.5855
MEAN_ANOMALY   = 358.0698

EPHEMERIS_TYPE = 0
CLASSIFICATION_TYPE = U
NORAD_CAT_ID   = 67012
ELEMENT_SET_NO = 999
REV_AT_EPOCH   = 433
BSTAR          = .99622E-3
MEAN_MOTION_DOT = .61494E-3
MEAN_MOTION_DDOT = 0

