2025-292J               
1 67001U 25292J   26008.14533575  .00005602  00000+0  40135-3 0  9991
2 67001  97.6528  85.4431 0015887 175.0651 185.0734 15.04688112  4369
ZK-1A R/B               
1 67002U 25292K   26008.16757233  .00169343  10283-4  69060-3 0  9993
2 67002  97.7162  88.2285 0189284 268.0471  89.9101 15.63879723  4511
STARLINK-35660          
1 67003U 25293A   26008.05639093  .00083946  00000+0  13509-2 0  9997
2 67003  69.9994 249.4115 0003533 269.2756  90.8026 15.52559889  5750
STARLINK-35913          
1 67004U 25293B   26008.05604809  .00064809  00000+0  10463-2 0  9998
2 67004  69.9999 249.4109 0003420 267.7452  92.3344 15.52551959  5750
STARLINK-36148          
1 67005U 25293C   26008.16668980  .00064534  00000+0  10449-2 0  9990
2 67005  69.9996 249.1045 0003469 274.0880 346.1464 15.52472781  4390
STARLINK-36156          
1 67006U 25293D   26007.92615835  .00059039  00000+0  95411-3 0  9992
2 67006  69.9986 249.7588 0003357 268.1884  91.8919 15.52552293  5737
STARLINK-36123          
1 67007U 25293E   26008.05478339  .05493720  00000+0  63881-1 0  9992
2 67007  70.0014 249.4059 0017730 286.5684  73.3558 15.57262966  5751
STARLINK-36163          
1 67008U 25293F   26008.16668980  .00059491  00000+0  96408-3 0  9999
2 67008  69.9997 249.0980 0003364 274.6330 351.3537 15.52472988  4399
STARLINK-36118          
1 67009U 25293G   26008.16668980  .00061315  00000+0  99339-3 0  9994
2 67009  69.9997 249.0955 0003411 276.2148 351.6915 15.52471242  4339
STARLINK-36189          
1 67010U 25293H   26008.16668980  .00064418  00000+0  10432-2 0  9999
2 67010  69.9996 249.0907 0003422 277.2139 354.5257 15.52469361  4408
STARLINK-36167          
1 67011U 25293J   26008.16668980  .00064927  00000+0  10514-2 0  9996
2 67011  69.9995 249.0928 0003370 274.4418 355.3839 15.52467840  4339
STARLINK-36175          
1 67012U 25293K   26008.16668980  .00061494  00000+0  99622-3 0  9991
2 67012  69.9997 249.0886 0003347 275.5855 358.0698 15.52472299  4333
